{
  "norad_id": 62060,
  "name": "STARLINK-11473 [DTC]",
  "history": [
    {
      "epoch": "2026-03-28T22:33:22.077504Z",
      "apogee_km": 360.53012202593436,
      "perigee_km": 359.09628622249784,
      "latitude_deg": -6.610654438779201e-05,
      "longitude_deg": 171.91027775418354,
      "height_km": 360.43112605034315,
      "semi_major_axis_km": 6737.950204124216,
      "eccentricity": 0.0001064,
      "inclination_deg": 53.1573,
      "raan_deg": 336.6054,
      "arg_perigee_deg": 65.6476,
      "mean_anomaly_deg": 294.4652,
      "mean_motion_rev_day": 15.69679789
    },
    {
      "epoch": "2026-03-30T05:07:02.037792Z",
      "apogee_km": 359.9004551029557,
      "perigee_km": 358.80493927819225,
      "latitude_deg": -4.379701337882253e-06,
      "longitude_deg": 65.96152349278371,
      "height_km": 360.12946703357585,
      "semi_major_axis_km": 6737.489697190574,
      "eccentricity": 8.13e-05,
      "inclination_deg": 53.1572,
      "raan_deg": 330.3282,
      "arg_perigee_deg": 75.5105,
      "mean_anomaly_deg": 284.6003,
      "mean_motion_rev_day": 15.69840723
    },
    {
      "epoch": "2026-03-30T05:07:02.038656Z",
      "apogee_km": 359.9004551029557,
      "perigee_km": 358.80493927819225,
      "latitude_deg": -4.383361249924123e-06,
      "longitude_deg": 65.96151988020502,
      "height_km": 360.1294670340979,
      "semi_major_axis_km": 6737.489697190574,
      "eccentricity": 8.13e-05,
      "inclination_deg": 53.1572,
      "raan_deg": 330.3282,
      "arg_perigee_deg": 75.5105,
      "mean_anomaly_deg": 284.6003,
      "mean_motion_rev_day": 15.69840723
    },
    {
      "epoch": "2026-03-30T21:55:34.582080Z",
      "apogee_km": 360.1982036888785,
      "perigee_km": 358.9691086867779,
      "latitude_deg": -1.2521776522668967e-05,
      "longitude_deg": 169.68349428930108,
      "height_km": 360.5377827894604,
      "semi_major_axis_km": 6737.720656187828,
      "eccentricity": 9.121e-05,
      "inclination_deg": 53.157,
      "raan_deg": 326.8761,
      "arg_perigee_deg": 93.7808,
      "mean_anomaly_deg": 266.3314,
      "mean_motion_rev_day": 15.69760006
    },
    {
      "epoch": "2026-03-31T20:50:50.215200Z",
      "apogee_km": 359.28366979253224,
      "perigee_km": 358.8039825177102,
      "latitude_deg": -2.781287611745655e-05,
      "longitude_deg": -179.78098618359536,
      "height_km": 360.14056646909796,
      "semi_major_axis_km": 6737.180826155121,
      "eccentricity": 3.56e-05,
      "inclination_deg": 53.1565,
      "raan_deg": 322.1681,
      "arg_perigee_deg": 220.749,
      "mean_anomaly_deg": 139.3501,
      "mean_motion_rev_day": 15.6994868
    },
    {
      "epoch": "2026-04-01T21:17:46.461984Z",
      "apogee_km": 360.2504975903794,
      "perigee_km": 358.3491929126485,
      "latitude_deg": 6.949265845321992e-05,
      "longitude_deg": 167.4586429909161,
      "height_km": 360.61977699035987,
      "semi_major_axis_km": 6737.436845251514,
      "eccentricity": 0.0001411,
      "inclination_deg": 53.1567,
      "raan_deg": 317.1461,
      "arg_perigee_deg": 115.3376,
      "mean_anomaly_deg": 244.7789,
      "mean_motion_rev_day": 15.69859195
    },
    {
      "epoch": "2026-04-02T07:59:33.779040Z",
      "apogee_km": 360.64631280068534,
      "perigee_km": 358.1337542193478,
      "latitude_deg": 1.7268388829559768e-05,
      "longitude_deg": 4.375161352321271,
      "height_km": 359.99087295027476,
      "semi_major_axis_km": 6737.527033510016,
      "eccentricity": 0.00018646,
      "inclination_deg": 53.1567,
      "raan_deg": 314.9491,
      "arg_perigee_deg": 75.6424,
      "mean_anomaly_deg": 284.4801,
      "mean_motion_rev_day": 15.69827674
    },
    {
      "epoch": "2026-04-02T21:44:41.793792Z",
      "apogee_km": 360.2448638420128,
      "perigee_km": 358.05214690143384,
      "latitude_deg": -5.005827402384769e-06,
      "longitude_deg": 154.7019664903231,
      "height_km": 360.52443172371375,
      "semi_major_axis_km": 6737.285505371723,
      "eccentricity": 0.00016273,
      "inclination_deg": 53.1565,
      "raan_deg": 312.1241,
      "arg_perigee_deg": 114.9858,
      "mean_anomaly_deg": 245.1329,
      "mean_motion_rev_day": 15.69912091
    }
  ]
}